BEIDOU 3 (C01)          
1 36287U 10001A   20343.19299644 -.00000271  00000-0  00000+0 0  9994
2 36287   1.6104  37.2998 0003547 123.9885 125.9327  1.00266197 39938
BEIDOU 5 (C06)          
1 36828U 10036A   20343.19435464  .00000010  00000-0  00000-0 0  9996
2 36828  54.1639 181.3659 0100190 233.6467 211.3861  1.00262030 37996
BEIDOU 6 (C04)          
1 37210U 10057A   20343.55813267 -.00000101  00000-0  00000+0 0  9997
2 37210   0.8169  45.7468 0007048 186.9896 205.9411  1.00270716 37061
BEIDOU 7 (C07)          
1 37256U 10068A   20342.90189778 -.00000218  00000-0  00000-0 0  9990
2 37256  51.1940 296.2803 0080453 215.7687   7.4078  1.00255579 36572
BEIDOU 8 (C08)          
1 37384U 11013A   20343.23574624 -.00000210  00000-0  00000-0 0  9990
2 37384  59.5158  59.8373 0053041 204.8046  14.2755  1.00257018 35446
BEIDOU 9 (C09)          
1 37763U 11038A   20342.90249766  .00000000  00000-0  00000-0 0  9993
2 37763  54.4461 183.7796 0072501 223.2188  89.0118  1.00258537 34414
BEIDOU 10 (C10)         
1 37948U 11073A   20343.27471032 -.00000149  00000-0  00000-0 0  9996
2 37948  51.2890 295.8767 0070152 217.4200 116.4945  1.00257101 33174
BEIDOU 11 (C05)         
1 38091U 12008A   20343.12202079  .00000067  00000-0  00000-0 0  9990
2 38091   1.8455  70.6420 0003819 224.0869 245.2742  1.00273796 32250
BEIDOU 12 (C11)         
1 38250U 12018A   20342.96921691 -.00000062  00000-0  00000-0 0  9993
2 38250  56.7519  11.9383 0024875 244.8258 187.4839  1.86234413 58721
BEIDOU 13 (C12)         
1 38251U 12018B   20343.36517668 -.00000062  00000-0  00000+0 0  9993
2 38251  56.6764  11.2852 0015786 246.4458 135.9168  1.86232727 58738
BEIDOU 15 (C14)         
1 38775U 12050B   20342.89314961  .00000090  00000-0  00000-0 0  9999
2 38775  55.1261 130.4437 0012243 324.5694 298.5389  1.86232356 56099
BEIDOU 16 (C02)         
1 38953U 12059A   20342.98417135 -.00000165  00000-0  00000-0 0  9997
2 38953   1.5123  84.6218 0008084 252.1996 178.7628  1.00273752 29822
BEIDOU 17 (C31)         
1 40549U 15019A   20343.41091144 -.00000145  00000-0  00000+0 0  9994
2 40549  52.7961 319.1951 0039319 194.9784 163.0192  1.00250125 20853
BEIDOU 18 (C57)         
1 40748U 15037A   20343.18041392 -.00000063  00000-0  00000-0 0  9999
2 40748  55.9423  10.4935 0002806 311.8775 216.6127  1.86233571 36553
BEIDOU 19 (C58)         
1 40749U 15037B   20343.32561361 -.00000063  00000-0  00000+0 0  9998
2 40749  55.9464  10.4762 0006070 287.2021 115.5705  1.86232240 36555
BEIDOU 20 (C18)         
1 40938U 15053A   20343.26022538 -.00000154  00000-0  00000-0 0  9999
2 40938  52.3600 282.2471 0047296 192.6900 152.6417  1.00279720 19131
BEIDOU IGSO-6 (C13)     
1 41434U 16021A   20343.49676626 -.00000166  00000-0  00000+0 0  9997
2 41434  57.2862  58.6670 0043090 207.4860  84.8961  1.00265633 17250
BEIDOU-2 G7 (C03)       
1 41586U 16037A   20343.15670118 -.00000342  00000-0  00000-0 0  9992
2 41586   1.8511  68.5545 0008116 353.2516 182.4076  1.00263985 16566
BEIDOU-3 M1 (C19)       
1 43001U 17069A   20343.45908905  .00000089  00000-0  00000+0 0  9999
2 43001  55.2800 130.3504 0007031 288.3923 150.6804  1.86231802 21044
BEIDOU-3 M2 (C20)       
1 43002U 17069B   20343.01661603  .00000090  00000-0  00000-0 0  9996
2 43002  55.2826 130.4016 0006065 319.5702 226.5168  1.86231479 21024
BEIDOU-3 M3 (C27)       
1 43107U 18003A   20342.95950150 -.00000065  00000-0  00000-0 0  9994
2 43107  55.3813  11.6664 0003110  35.1866 278.4836  1.86232638 19782
BEIDOU-3 M4 (C28)       
1 43108U 18003B   20342.89285194 -.00000065  00000-0  00000-0 0  9997
2 43108  55.3742  11.6615 0004661 241.9652  72.1958  1.86232696 19780
BEIDOU-3 M5 (C21)       
1 43207U 18018A   20342.33475817  .00000090  00000-0  00000-0 0  9992
2 43207  55.2400 130.5224 0004560 354.2903   5.6917  1.86231411 19164
BEIDOU-3 M6 (C22)       
1 43208U 18018B   20343.47542815  .00000089  00000-0  00000+0 0  9999
2 43208  55.2400 130.4889 0005528 303.6470  56.2880  1.86231437 19184
BEIDOU-3 M7 (C29)       
1 43245U 18029A   20343.09602139 -.00000064  00000-0  00000-0 0  9991
2 43245  55.3201   9.4651 0001600 253.5454  61.7525  1.86232766 18327
BEIDOU-3 M8 (C30)       
1 43246U 18029B   20343.02428156 -.00000064  00000-0  10000-3 0  9994
2 43246  55.3173   9.4980 0004063 323.8190 349.4150  1.86233063 18315
BEIDOU IGSO-7 (C16)     
1 43539U 18057A   20342.76786396 -.00000058  00000-0  00000-0 0  9992
2 43539  55.0468 180.6842 0030869 212.8207  75.1168  1.00272346  8923
BEIDOU-3 M9 (C23)       
1 43581U 18062A   20343.46757819 -.00000005  00000-0  00000+0 0  9992
2 43581  54.4838 251.1562 0004612 289.8818 170.2158  1.86231923 16077
BEIDOU-3 M10 (C24)      
1 43582U 18062B   20343.03591355 -.00000004  00000-0  00000-0 0  9997
2 43582  54.4839 251.1601 0006162 347.3090 274.5188  1.86232387 16062
BEIDOU-3 M11 (C25)      
1 43602U 18067A   20343.27323378 -.00000002  00000-0  00000-0 0  9997
2 43602  54.5575 249.7210 0007370 352.9062 110.6197  1.86231526 15563
BEIDOU-3 M12 (C26)      
1 43603U 18067B   20343.45203887 -.00000002  00000-0  00000+0 0  9999
2 43603  54.5544 249.6826 0004727 342.3820 151.5275  1.86231510 15586
BEIDOU-3 M13 (C32)      
1 43622U 18072A   20343.02623442  .00000089  00000-0  00000-0 0  9997
2 43622  55.2033 130.0730 0003853 282.9871 315.8647  1.86231712 15086
BEIDOU-3 M14 (C33)      
1 43623U 18072B   20342.95762534  .00000089  00000-0  00000-0 0  9995
2 43623  55.2055 130.0670 0002729 333.1085 309.9778  1.86231736 15086
BEIDOU-3 M15 (C34)      
1 43647U 18078A   20343.16197543 -.00000064  00000-0  10000-3 0  9991
2 43647  55.2141   9.6677 0006322 335.2568 339.9802  1.86233091 14590
BEIDOU-3 M16 (C35)      
1 43648U 18078B   20342.75634252 -.00000064  00000-0  10000-3 0  9999
2 43648  55.2083   9.6907 0003893 339.8621 332.1979  1.86232420 14609
BEIDOU-3 G1 (C59)       
1 43683U 18085A   20343.24215971 -.00000266  00000-0  00000-0 0  9994
2 43683   1.4036 245.8131 0004756   5.6711  53.2463  1.00270146  7849
BEIDOU-3 M17 (C36)      
1 43706U 18093A   20342.83502932 -.00000003  00000-0  00000-0 0  9998
2 43706  54.5654 251.0243 0010202 275.6078 345.3572  1.86231936 13954
BEIDOU-3 M18 (C37)      
1 43707U 18093B   20343.23879644 -.00000004  00000-0  00000-0 0  9992
2 43707  54.5645 250.9987 0009311 298.4961 323.8542  1.86232200 13965
BEIDOU-3 IGSO-1 (C38)   
1 44204U 19023A   20343.42954565 -.00000225  00000-0  00000+0 0  9990
2 44204  55.7458  59.0072 0018192 196.9760  88.0445  1.00297291  6132
BEIDOU-2 G8             
1 44231U 19027A   20343.46613332 -.00000235  00000-0  00000+0 0  9993
2 44231   0.5994 305.9029 0008315 274.4938 169.6371  1.00274578  5850
BEIDOU-3 IGSO-2 (C39)   
1 44337U 19035A   20342.47757649 -.00000044  00000-0  00000+0 0  9997
2 44337  55.0703 176.7305 0016567 184.0830 354.1622  1.00288526  5461
BEIDOU-3 M23 (C45)      
1 44542U 19061A   20343.17401454 -.00000004  00000-0  10000-3 0  9993
2 44542  54.7887 251.0444 0009302 329.2633 203.2963  1.86231628  8226
BEIDOU-3 M24 (C46)      
1 44543U 19061B   20342.90219900 -.00000003  00000-0  10000-3 0  9996
2 44543  54.7875 251.0264 0006545 321.6613 299.2612  1.86231997  8229
BEIDOU-3 IGSO-3         
1 44709U 19073A   20343.03148741 -.00000173  00000-0  00000-0 0  9996
2 44709  58.1406 302.1237 0021138 198.2249  56.2189  1.00280751  4221
BEIDOU-3 M21            
1 44793U 19078A   20343.34090229 -.00000065  00000-0  10000-3 0  9999
2 44793  55.0619   9.7503 0005948 342.0310  47.8488  1.86232673  7091
BEIDOU-3 M22            
1 44794U 19078B   20343.55684660 -.00000065  00000-0  10000-3 0  9991
2 44794  55.0355   9.7466 0004196 330.3692 114.9058  1.86233176  7092
BEIDOU-3 M19            
1 44864U 19090A   20343.49871620  .00000088  00000-0  00000+0 0  9999
2 44864  55.1395 130.2985 0013568 260.0135 340.9366  1.86231890  6672
BEIDOU-3 M20            
1 44865U 19090B   20343.46529696  .00000088  00000-0  00000+0 0  9990
2 44865  55.1418 130.3299 0012187 278.1435  30.3310  1.86231844  6653
BEIDOU-3 G2             
1 45344U 20017A   20343.11091076 -.00000132  00000-0  00000-0 0  9994
2 45344   2.6967 331.7525 0001226 292.1368 293.4152  1.00270216  3031
BEIDOU-3 G3             
1 45807U 20040A   20342.57306337 -.00000343  00000-0  00000+0 0  9995
2 45807   2.7267 298.5375 0009941  10.9946  84.0005  1.00278839  1850
